{"fetched_at":"2026-03-29T16:36:15Z","count":15609,"tles":[{"name":"STARLINK-35705","line1":"1 67039U 25294K   26087.86563546  .00027474  00000+0  10036-2 0  9998","line2":"2 67039  43.0021 289.6272 0001535 269.4600  90.6076 15.27598436 17730","category":"Starlink"}]}